{
  "norad_id": 45764,
  "name": "STARLINK-1502",
  "history": [
    {
      "epoch": "2026-03-28T18:56:46.657824Z",
      "apogee_km": 421.0841534545507,
      "perigee_km": 412.9530702494085,
      "latitude_deg": -1.3252389213475862e-05,
      "longitude_deg": 4.189349965020075,
      "height_km": 415.3290734845193,
      "semi_major_axis_km": 6795.155611851979,
      "eccentricity": 0.0005983,
      "inclination_deg": 53.0511,
      "raan_deg": 114.5886,
      "arg_perigee_deg": 50.6428,
      "mean_anomaly_deg": 309.5109,
      "mean_motion_rev_day": 15.49899906
    }
  ]
}